ALOS (DAICHI)           
1 28931U 06002A   24205.81108354  .00004298  00000+0  79198-3 0  9993
2 28931  98.0383 158.0963 0002277  67.4754 292.6691 14.66046199986711
